[{"OBJECT_NAME":"ONEWEB-0043","OBJECT_ID":"2020-008U","EPOCH":"2026-03-09T22:32:22.625664","MEAN_MOTION":13.10375574,"ECCENTRICITY":0.0001265,"INCLINATION":87.8781,"RA_OF_ASC_NODE":56.0239,"ARG_OF_PERICENTER":82.5703,"MEAN_ANOMALY":277.5569,"EPHEMERIS_TYPE":0,"CLASSIFICATION_TYPE":"U","NORAD_CAT_ID":45149,"ELEMENT_SET_NO":999,"REV_AT_EPOCH":29518,"BSTAR":0.0010916452,"MEAN_MOTION_DOT":3.94e-6,"MEAN_MOTION_DDOT":0},{"OBJECT_NAME":"COSMOS 2251 DEB","OBJECT_ID":"1993-036HM","EPOCH":"2026-03-09T17:47:38.451264","MEAN_MOTION":13.65491459,"ECCENTRICITY":0.03477241,"INCLINATION":73.7663,"RA_OF_ASC_NODE":192.6013,"ARG_OF_PERICENTER":48.6405,"MEAN_ANOMALY":73.2868,"EPHEMERIS_TYPE":0,"CLASSIFICATION_TYPE":"U","NORAD_CAT_ID":34026,"ELEMENT_SET_NO":999,"REV_AT_EPOCH":84719,"BSTAR":0.00069399061,"MEAN_MOTION_DOT":8.34e-6,"MEAN_MOTION_DDOT":0}]
